     cn00000  C2002 01 01.08744 01 25 11.60 -02 08 08.12         18.6   g    644
     cn00000  C2002 01 01.10823 01 25 07.18 -02 07 20.55         17.9   g    644
     cn00000  C2002 01 01.13038 01 25 02.27 -02 05 51.08         18.3   g    644
Orbital elements:  cn00000
   Perihelion 2002 Jan 3.82233 TT = 19:44:09 (JD 2452278.32233)
Epoch 2002 Jan  1.0 TT = JDT 2452275.5   Earth MOID: 0.0000   Ju: 0.0223
M 359.56983078                      Ma: 0.0309                   Find_Orb
n   0.15241639     Peri.    3.38947
a   3.47094920     Node   100.63371
e   0.7169010      Incl.    2.22460                       (J2000 ecliptic)
P   6.47           H   31.53    G   0.15   q 0.98262200  Q 5.95927640
2 of 3 observations 2002 Jan. 1 (61.8 min); mean residual 0".00


     cn00001  C2002 01 01.08744 01 25 11.60 -02 08 08.12         18.6   g    644
     cn00001  C2002 01 01.10823 01 25 07.18 -02 07 20.55         17.9   g    644
     cn00001  C2002 01 01.13038 01 25 04.96 -02 05 18.65         18.4   g    644
Orbital elements:  cn00001
   Perihelion 2002 Jan 3.78532 TT = 18:50:51 (JD 2452278.28532)
Epoch 2002 Jan  1.0 TT = JDT 2452275.5   Earth MOID: 0.0000   Ju: 0.0138
M 359.53628246                      Ma: 0.0302                   Find_Orb
n   0.16648640     Peri.    3.33460
a   3.27252926     Node   100.62498
e   0.6997262      Incl.    2.18391                       (J2000 ecliptic)
P   5.92           H   31.75    G   0.15   q 0.98265447  Q 5.56240406
2 of 3 observations 2002 Jan. 1 (61.8 min); mean residual 0".00


     cn00002  C2002 01 01.08744 01 23 43.80 -02 17 06.01         19.0   g    644
     cn00002  C2002 01 01.10823 01 23 49.63 -02 17 01.54         17.2   g    644
     cn00002  C2002 01 01.13038 01 23 50.41 -02 16 53.79         17.3   g    644
Orbital elements:  cn00002
   Perihelion 2002 Jan 1.10626 TT =  2:33:01 (JD 2452275.60626)
Epoch 2002 Jan  1.0 TT = JDT 2452275.5   Earth MOID: 0.2181      Find_Orb
M 359.92244268                      (J2000 ecliptic)
n   0.72985447     Peri.  206.89546
a   1.22173927     Node   226.04829
e   0.0117695      Incl.   10.90965
P   1.35/493.24d   H   17.39    G   0.15   q 1.20735996  Q 1.23611857
2 of 3 observations 2002 Jan. 1 (61.8 min); mean residual 0".00


     cn00003  C2002 01 01.08744 01 23 48.85 -02 17 10.00         17.3   g    644
     cn00003  C2002 01 01.10823 01 23 49.63 -02 17 01.54         17.2   g    644
     cn00003  C2002 01 01.13038 01 23 50.41 -02 16 53.79         17.3   g    644
Orbital elements:  cn00003
   Perihelion 2002 Mar 24.58149 +/- 135 TT = 13:57:21 (JD 2452358.08149)
Epoch 2002 Jan  1.0 TT = JDT 2452275.5                           Find_Orb
M 343.36009679 +/- 90               (J2000 ecliptic)
n   0.20149675 +/- 0.482            Peri.  264.17502 +/- 90
a   2.88153572 +/- 4.59             Node   155.91323 +/- 46
e   0.0800133 +/- 0.232             Incl.   10.02147 +/- 53
P   4.89                   H 12.68  G  0.15   U 12.2  SR
q 2.65097447 +/- 0.938    Q 3.11209698 +/- 31.6
From 3 observations 2002 Jan. 1 (61.8 min); mean residual 0".24


     cn00004  C2002 01 01.08744 01 24 28.24 -02 27 26.85         18.8   g    644
     cn00004  C2002 01 01.10823 01 24 33.80 -02 27 47.97         18.6   g    644
     cn00004  C2002 01 01.13038 01 24 36.44 -02 28 18.63         17.1   g    644
Orbital elements:  cn00004
   Perihelion 2002 Jan 1.10632 TT =  2:33:05 (JD 2452275.60632)
Epoch 2002 Jan  1.0 TT = JDT 2452275.5   Earth MOID: 0.2245      Find_Orb
M 359.94700321                      (J2000 ecliptic)
n   0.49847873     Peri.  192.07049
a   1.57533028     Node   241.62869
e   0.2335829      Incl.   24.69736
P   1.98/722.18d   H   17.20    G   0.15   q 1.20735995  Q 1.94330061
2 of 3 observations 2002 Jan. 1 (61.8 min); mean residual 0".00


     cn00000  C2002 01 01.08744 01 25 11.60 -02 08 08.12         18.6   g    644
     cn00000  C2002 01 01.10823 01 25 07.18 -02 07 20.55         17.9   g    644
     cn00000  C2002 01 01.13038 01 25 02.27 -02 05 51.08         18.3   g    644
Orbital elements:  cn00000
   Perihelion 2002 Jan 3.82233 TT = 19:44:09 (JD 2452278.32233)
Epoch 2002 Jan  1.0 TT = JDT 2452275.5   Earth MOID: 0.0000   Ju: 0.0223
M 359.56983078                      Ma: 0.0309                   Find_Orb
n   0.15241639     Peri.    3.38947
a   3.47094920     Node   100.63371
e   0.7169010      Incl.    2.22460                       (J2000 ecliptic)
P   6.47           H   31.53    G   0.15   q 0.98262200  Q 5.95927640
2 of 3 observations 2002 Jan. 1 (61.8 min); mean residual 0".00


     cn00001  C2002 01 01.08744 01 25 11.60 -02 08 08.12         18.6   g    644
     cn00001  C2002 01 01.10823 01 25 07.18 -02 07 20.55         17.9   g    644
     cn00001  C2002 01 01.13038 01 25 04.96 -02 05 18.65         18.4   g    644
Orbital elements:  cn00001
   Perihelion 2002 Jan 3.78532 TT = 18:50:51 (JD 2452278.28532)
Epoch 2002 Jan  1.0 TT = JDT 2452275.5   Earth MOID: 0.0000   Ju: 0.0138
M 359.53628246                      Ma: 0.0302                   Find_Orb
n   0.16648640     Peri.    3.33460
a   3.27252926     Node   100.62498
e   0.6997262      Incl.    2.18391                       (J2000 ecliptic)
P   5.92           H   31.75    G   0.15   q 0.98265447  Q 5.56240406
2 of 3 observations 2002 Jan. 1 (61.8 min); mean residual 0".00


     cn00002  C2002 01 01.08744 01 23 43.80 -02 17 06.01         19.0   g    644
     cn00002  C2002 01 01.10823 01 23 49.63 -02 17 01.54         17.2   g    644
     cn00002  C2002 01 01.13038 01 23 50.41 -02 16 53.79         17.3   g    644
Orbital elements:  cn00002
   Perihelion 2002 Jan 1.10626 TT =  2:33:01 (JD 2452275.60626)
Epoch 2002 Jan  1.0 TT = JDT 2452275.5   Earth MOID: 0.2181      Find_Orb
M 359.92244268                      (J2000 ecliptic)
n   0.72985447     Peri.  206.89546
a   1.22173927     Node   226.04829
e   0.0117695      Incl.   10.90965
P   1.35/493.24d   H   17.39    G   0.15   q 1.20735996  Q 1.23611857
2 of 3 observations 2002 Jan. 1 (61.8 min); mean residual 0".00


     cn00003  C2002 01 01.08744 01 23 48.85 -02 17 10.00         17.3   g    644
     cn00003  C2002 01 01.10823 01 23 49.63 -02 17 01.54         17.2   g    644
     cn00003  C2002 01 01.13038 01 23 50.41 -02 16 53.79         17.3   g    644
Orbital elements:  cn00003
   Perihelion 2002 Mar 24.58149 +/- 135 TT = 13:57:21 (JD 2452358.08149)
Epoch 2002 Jan  1.0 TT = JDT 2452275.5                           Find_Orb
M 343.36009679 +/- 90               (J2000 ecliptic)
n   0.20149675 +/- 0.482            Peri.  264.17502 +/- 90
a   2.88153572 +/- 4.59             Node   155.91323 +/- 46
e   0.0800133 +/- 0.232             Incl.   10.02147 +/- 53
P   4.89                   H 12.68  G  0.15   U 12.2  SR
q 2.65097447 +/- 0.938    Q 3.11209698 +/- 31.6
From 3 observations 2002 Jan. 1 (61.8 min); mean residual 0".24


     cn00004  C2002 01 01.08744 01 24 28.24 -02 27 26.85         18.8   g    644
     cn00004  C2002 01 01.10823 01 24 33.80 -02 27 47.97         18.6   g    644
     cn00004  C2002 01 01.13038 01 24 36.44 -02 28 18.63         17.1   g    644
Orbital elements:  cn00004
   Perihelion 2002 Jan 1.10632 TT =  2:33:05 (JD 2452275.60632)
Epoch 2002 Jan  1.0 TT = JDT 2452275.5   Earth MOID: 0.2245      Find_Orb
M 359.94700321                      (J2000 ecliptic)
n   0.49847873     Peri.  192.07049
a   1.57533028     Node   241.62869
e   0.2335829      Incl.   24.69736
P   1.98/722.18d   H   17.20    G   0.15   q 1.20735995  Q 1.94330061
2 of 3 observations 2002 Jan. 1 (61.8 min); mean residual 0".00


     cn00000  C2002 01 01.08744 01 25 11.60 -02 08 08.12         18.6   g    644
     cn00000  C2002 01 01.10823 01 25 07.18 -02 07 20.55         17.9   g    644
     cn00000  C2002 01 01.13038 01 25 02.27 -02 05 51.08         18.3   g    644
Orbital elements:  cn00000
   Perihelion 2002 Jan 3.82233 TT = 19:44:09 (JD 2452278.32233)
Epoch 2002 Jan  1.0 TT = JDT 2452275.5   Earth MOID: 0.0000   Ju: 0.0223
M 359.56983078                      Ma: 0.0309                   Find_Orb
n   0.15241639     Peri.    3.38947
a   3.47094920     Node   100.63371
e   0.7169010      Incl.    2.22460                       (J2000 ecliptic)
P   6.47           H   31.53    G   0.15   q 0.98262200  Q 5.95927640
2 of 3 observations 2002 Jan. 1 (61.8 min); mean residual 0".00


     cn00001  C2002 01 01.08744 01 25 11.60 -02 08 08.12         18.6   g    644
     cn00001  C2002 01 01.10823 01 25 07.18 -02 07 20.55         17.9   g    644
     cn00001  C2002 01 01.13038 01 25 04.96 -02 05 18.65         18.4   g    644
Orbital elements:  cn00001
   Perihelion 2002 Jan 3.78532 TT = 18:50:51 (JD 2452278.28532)
Epoch 2002 Jan  1.0 TT = JDT 2452275.5   Earth MOID: 0.0000   Ju: 0.0138
M 359.53628246                      Ma: 0.0302                   Find_Orb
n   0.16648640     Peri.    3.33460
a   3.27252926     Node   100.62498
e   0.6997262      Incl.    2.18391                       (J2000 ecliptic)
P   5.92           H   31.75    G   0.15   q 0.98265447  Q 5.56240406
2 of 3 observations 2002 Jan. 1 (61.8 min); mean residual 0".00


     cn00002  C2002 01 01.08744 01 23 43.80 -02 17 06.01         19.0   g    644
     cn00002  C2002 01 01.10823 01 23 49.63 -02 17 01.54         17.2   g    644
     cn00002  C2002 01 01.13038 01 23 50.41 -02 16 53.79         17.3   g    644
Orbital elements:  cn00002
   Perihelion 2002 Jan 1.10626 TT =  2:33:01 (JD 2452275.60626)
Epoch 2002 Jan  1.0 TT = JDT 2452275.5   Earth MOID: 0.2181      Find_Orb
M 359.92244268                      (J2000 ecliptic)
n   0.72985447     Peri.  206.89546
a   1.22173927     Node   226.04829
e   0.0117695      Incl.   10.90965
P   1.35/493.24d   H   17.39    G   0.15   q 1.20735996  Q 1.23611857
2 of 3 observations 2002 Jan. 1 (61.8 min); mean residual 0".00

